CCSDS_OMM_VERS = 2.0
CREATION_DATE  = 
ORIGINATOR     = 

OBJECT_NAME    = H-2A R/B
OBJECT_ID      = 2012-025E
CENTER_NAME    = EARTH
REF_FRAME      = TEME
TIME_SYSTEM    = UTC
MEAN_ELEMENT_THEORY = SGP/SGP4

EPOCH          = 2025-11-07T19:39:23.724576
MEAN_MOTION    = 14.94066599
ECCENTRICITY   = .004537
INCLINATION    = 98.4544
RA_OF_ASC_NODE = 264.3768
ARG_OF_PERICENTER = 353.4754
MEAN_ANOMALY   = 6.5867

EPHEMERIS_TYPE = 0
CLASSIFICATION_TYPE = U
NORAD_CAT_ID   = 38341
ELEMENT_SET_NO = 999
REV_AT_EPOCH   = 73001
BSTAR          = .64368E-3
MEAN_MOTION_DOT = .6949E-4
MEAN_MOTION_DDOT = 0

CCSDS_OMM_VERS = 2.0
CREATION_DATE  = 
ORIGINATOR     = 

OBJECT_NAME    = SHIJIAN-16 (SJ-16)
OBJECT_ID      = 2013-057A
CENTER_NAME    = EARTH
REF_FRAME      = TEME
TIME_SYSTEM    = UTC
MEAN_ELEMENT_THEORY = SGP/SGP4

EPOCH          = 2025-11-07T20:47:02.071680
MEAN_MOTION    = 14.91799380
ECCENTRICITY   = .0016221
INCLINATION    = 74.9745
RA_OF_ASC_NODE = 55.6288
ARG_OF_PERICENTER = 45.0677
MEAN_ANOMALY   = 315.1824

EPHEMERIS_TYPE = 0
CLASSIFICATION_TYPE = U
NORAD_CAT_ID   = 39358
ELEMENT_SET_NO = 999
REV_AT_EPOCH   = 65333
BSTAR          = .3688E-3
MEAN_MOTION_DOT = .3702E-4
MEAN_MOTION_DDOT = 0

CCSDS_OMM_VERS = 2.0
CREATION_DATE  = 
ORIGINATOR     = 

OBJECT_NAME    = SL-4 R/B
OBJECT_ID      = 2014-021B
CENTER_NAME    = EARTH
REF_FRAME      = TEME
TIME_SYSTEM    = UTC
MEAN_ELEMENT_THEORY = SGP/SGP4

EPOCH          = 2025-11-07T17:50:38.699808
MEAN_MOTION    = 15.35348460
ECCENTRICITY   = .0104437
INCLINATION    = 51.6067
RA_OF_ASC_NODE = 210.5137
ARG_OF_PERICENTER = 20.2365
MEAN_ANOMALY   = 340.2710

EPHEMERIS_TYPE = 0
CLASSIFICATION_TYPE = U
NORAD_CAT_ID   = 39679
ELEMENT_SET_NO = 999
REV_AT_EPOCH   = 63751
BSTAR          = .54719E-3
MEAN_MOTION_DOT = .2249E-3
MEAN_MOTION_DDOT = 0

CCSDS_OMM_VERS = 2.0
CREATION_DATE  = 
ORIGINATOR     = 

OBJECT_NAME    = ALOS-2
OBJECT_ID      = 2014-029A
CENTER_NAME    = EARTH
REF_FRAME      = TEME
TIME_SYSTEM    = UTC
MEAN_ELEMENT_THEORY = SGP/SGP4

EPOCH          = 2025-11-07T20:16:00.329664
MEAN_MOTION    = 14.79488854
ECCENTRICITY   = .0001235
INCLINATION    = 97.9236
RA_OF_ASC_NODE = 47.1869
ARG_OF_PERICENTER = 102.5436
MEAN_ANOMALY   = 257.5914

EPHEMERIS_TYPE = 0
CLASSIFICATION_TYPE = U
NORAD_CAT_ID   = 39766
ELEMENT_SET_NO = 999
REV_AT_EPOCH   = 61885
BSTAR          = .46943E-3
MEAN_MOTION_DOT = .3457E-4
MEAN_MOTION_DDOT = 0

CCSDS_OMM_VERS = 2.0
CREATION_DATE  = 
ORIGINATOR     = 

OBJECT_NAME    = YAOGAN-29
OBJECT_ID      = 2015-069A
CENTER_NAME    = EARTH
REF_FRAME      = TEME
TIME_SYSTEM    = UTC
MEAN_ELEMENT_THEORY = SGP/SGP4

EPOCH          = 2025-11-07T20:46:37.529760
MEAN_MOTION    = 14.82822661
ECCENTRICITY   = .000241
INCLINATION    = 98.0257
RA_OF_ASC_NODE = 334.9191
ARG_OF_PERICENTER = 56.5258
MEAN_ANOMALY   = 303.6185

EPHEMERIS_TYPE = 0
CLASSIFICATION_TYPE = U
NORAD_CAT_ID   = 41038
ELEMENT_SET_NO = 999
REV_AT_EPOCH   = 53782
BSTAR          = .99505E-4
MEAN_MOTION_DOT = .751E-5
MEAN_MOTION_DDOT = 0

CCSDS_OMM_VERS = 2.0
CREATION_DATE  = 
ORIGINATOR     = 

OBJECT_NAME    = ASTRO-H (HITOMI)
OBJECT_ID      = 2016-012A
CENTER_NAME    = EARTH
REF_FRAME      = TEME
TIME_SYSTEM    = UTC
MEAN_ELEMENT_THEORY = SGP/SGP4

EPOCH          = 2025-11-07T18:27:36.072000
MEAN_MOTION    = 15.09030061
ECCENTRICITY   = .0009873
INCLINATION    = 31.0003
RA_OF_ASC_NODE = 62.7585
ARG_OF_PERICENTER = 186.2384
MEAN_ANOMALY   = 173.8132

EPHEMERIS_TYPE = 0
CLASSIFICATION_TYPE = U
NORAD_CAT_ID   = 41337
ELEMENT_SET_NO = 999
REV_AT_EPOCH   = 53379
BSTAR          = .31881E-3
MEAN_MOTION_DOT = .5268E-4
MEAN_MOTION_DDOT = 0

CCSDS_OMM_VERS = 2.0
CREATION_DATE  = 
ORIGINATOR     = 

OBJECT_NAME    = HXMT (HUIYAN)
OBJECT_ID      = 2017-034A
CENTER_NAME    = EARTH
REF_FRAME      = TEME
TIME_SYSTEM    = UTC
MEAN_ELEMENT_THEORY = SGP/SGP4

EPOCH          = 2025-11-07T12:59:31.426080
MEAN_MOTION    = 15.15663462
ECCENTRICITY   = .0033042
INCLINATION    = 43.0154
RA_OF_ASC_NODE = 334.8756
ARG_OF_PERICENTER = 185.3755
MEAN_ANOMALY   = 174.6742

EPHEMERIS_TYPE = 0
CLASSIFICATION_TYPE = U
NORAD_CAT_ID   = 42758
ELEMENT_SET_NO = 999
REV_AT_EPOCH   = 46399
BSTAR          = .47648E-3
MEAN_MOTION_DOT = .9128E-4
MEAN_MOTION_DDOT = 0

CCSDS_OMM_VERS = 2.0
CREATION_DATE  = 
ORIGINATOR     = 

OBJECT_NAME    = CZ-2C R/B
OBJECT_ID      = 2018-054D
CENTER_NAME    = EARTH
REF_FRAME      = TEME
TIME_SYSTEM    = UTC
MEAN_ELEMENT_THEORY = SGP/SGP4

EPOCH          = 2025-11-07T15:19:51.787776
MEAN_MOTION    = 15.66509619
ECCENTRICITY   = .0024433
INCLINATION    = 35.1361
RA_OF_ASC_NODE = 57.5474
ARG_OF_PERICENTER = 163.1078
MEAN_ANOMALY   = 197.0471

EPHEMERIS_TYPE = 0
CLASSIFICATION_TYPE = U
NORAD_CAT_ID   = 43521
ELEMENT_SET_NO = 999
REV_AT_EPOCH   = 40953
BSTAR          = .94461E-3
MEAN_MOTION_DOT = .104957E-2
MEAN_MOTION_DDOT = 0

CCSDS_OMM_VERS = 2.0
CREATION_DATE  = 
ORIGINATOR     = 

OBJECT_NAME    = SAOCOM 1A
OBJECT_ID      = 2018-076A
CENTER_NAME    = EARTH
REF_FRAME      = TEME
TIME_SYSTEM    = UTC
MEAN_ELEMENT_THEORY = SGP/SGP4

EPOCH          = 2025-11-07T18:27:19.990368
MEAN_MOTION    = 14.82152793
ECCENTRICITY   = .0001342
INCLINATION    = 97.8869
RA_OF_ASC_NODE = 136.6977
ARG_OF_PERICENTER = 91.6074
MEAN_ANOMALY   = 268.5293

EPHEMERIS_TYPE = 0
CLASSIFICATION_TYPE = U
NORAD_CAT_ID   = 43641
ELEMENT_SET_NO = 999
REV_AT_EPOCH   = 38330
BSTAR          = .10426E-3
MEAN_MOTION_DOT = .778E-5
MEAN_MOTION_DDOT = 0

CCSDS_OMM_VERS = 2.0
CREATION_DATE  = 
ORIGINATOR     = 

OBJECT_NAME    = H-2A R/B
OBJECT_ID      = 2018-084L
CENTER_NAME    = EARTH
REF_FRAME      = TEME
TIME_SYSTEM    = UTC
MEAN_ELEMENT_THEORY = SGP/SGP4

EPOCH          = 2025-11-07T18:52:44.751648
MEAN_MOTION    = 15.35641348
ECCENTRICITY   = .0029278
INCLINATION    = 98.8800
RA_OF_ASC_NODE = 138.6696
ARG_OF_PERICENTER = 84.8503
MEAN_ANOMALY   = 275.6076

EPHEMERIS_TYPE = 0
CLASSIFICATION_TYPE = U
NORAD_CAT_ID   = 43682
ELEMENT_SET_NO = 999
REV_AT_EPOCH   = 38703
BSTAR          = .72623E-3
MEAN_MOTION_DOT = .25475E-3
MEAN_MOTION_DDOT = 0

CCSDS_OMM_VERS = 2.0
CREATION_DATE  = 
ORIGINATOR     = 

OBJECT_NAME    = SAOCOM 1B
OBJECT_ID      = 2020-059A
CENTER_NAME    = EARTH
REF_FRAME      = TEME
TIME_SYSTEM    = UTC
MEAN_ELEMENT_THEORY = SGP/SGP4

EPOCH          = 2025-11-07T19:12:22.984992
MEAN_MOTION    = 14.82160045
ECCENTRICITY   = .000148
INCLINATION    = 97.8856
RA_OF_ASC_NODE = 135.8310
ARG_OF_PERICENTER = 88.6725
MEAN_ANOMALY   = 271.4658

EPHEMERIS_TYPE = 0
CLASSIFICATION_TYPE = U
NORAD_CAT_ID   = 46265
ELEMENT_SET_NO = 999
REV_AT_EPOCH   = 28069
BSTAR          = .80544E-4
MEAN_MOTION_DOT = .589E-5
MEAN_MOTION_DDOT = 0

CCSDS_OMM_VERS = 2.0
CREATION_DATE  = 
ORIGINATOR     = 

OBJECT_NAME    = CSS (TIANHE)
OBJECT_ID      = 2021-035A
CENTER_NAME    = EARTH
REF_FRAME      = TEME
TIME_SYSTEM    = UTC
MEAN_ELEMENT_THEORY = SGP/SGP4

EPOCH          = 2025-11-07T19:23:37.693824
MEAN_MOTION    = 15.60624711
ECCENTRICITY   = .0005483
INCLINATION    = 41.4662
RA_OF_ASC_NODE = 228.8136
ARG_OF_PERICENTER = 340.8611
MEAN_ANOMALY   = 19.2021

EPHEMERIS_TYPE = 0
CLASSIFICATION_TYPE = U
NORAD_CAT_ID   = 48274
ELEMENT_SET_NO = 999
REV_AT_EPOCH   = 25857
BSTAR          = .46682E-3
MEAN_MOTION_DOT = .39652E-3
MEAN_MOTION_DDOT = 0

