H-2A R/B                
1 38341U 12025E   25311.81902459  .00006949  00000+0  64368-3 0  9996
2 38341  98.4544 264.3768 0045370 353.4754   6.5867 14.94066599730017
SHIJIAN-16 (SJ-16)      
1 39358U 13057A   25311.86599620  .00003702  00000+0  36880-3 0  9990
2 39358  74.9745  55.6288 0016221  45.0677 315.1824 14.91799380653336
SL-4 R/B                
1 39679U 14021B   25311.74350347  .00022490  00000+0  54719-3 0  9992
2 39679  51.6067 210.5137 0104437  20.2365 340.2710 15.35348460637515
ALOS-2                  
1 39766U 14029A   25311.84444826  .00003457  00000+0  46943-3 0  9996
2 39766  97.9236  47.1869 0001235 102.5436 257.5914 14.79488854618855
YAOGAN-29               
1 41038U 15069A   25311.86571215  .00000751  00000+0  99505-4 0  9998
2 41038  98.0257 334.9191 0002410  56.5258 303.6185 14.82822661537828
ASTRO-H (HITOMI)        
1 41337U 16012A   25311.76916750  .00005268  00000+0  31881-3 0  9995
2 41337  31.0003  62.7585 0009873 186.2384 173.8132 15.09030061533796
HXMT (HUIYAN)           
1 42758U 17034A   25311.54133595  .00009128  00000+0  47648-3 0  9999
2 42758  43.0154 334.8756 0033042 185.3755 174.6742 15.15663462463998
CZ-2C R/B               
1 43521U 18054D   25311.63879384  .00104957  00000+0  94461-3 0  9995
2 43521  35.1361  57.5474 0024433 163.1078 197.0471 15.66509619409538
SAOCOM 1A               
1 43641U 18076A   25311.76898137  .00000778  00000+0  10426-3 0  9998
2 43641  97.8869 136.6977 0001342  91.6074 268.5293 14.82152793383307
H-2A R/B                
1 43682U 18084L   25311.78662907  .00025475  00000+0  72623-3 0  9996
2 43682  98.8800 138.6696 0029278  84.8503 275.6076 15.35641348387037
SAOCOM 1B               
1 46265U 20059A   25311.80026603  .00000589  00000+0  80544-4 0  9992
2 46265  97.8856 135.8310 0001480  88.6725 271.4658 14.82160045280697
CSS (TIANHE)            
1 48274U 21035A   25311.80807516  .00039652  00000+0  46682-3 0  9996
2 48274  41.4662 228.8136 0005483 340.8611  19.2021 15.60624711258578
